[{"OBJECT_NAME":"STARLINK-36509","OBJECT_ID":"2026-005E","EPOCH":"2026-03-09T22:00:01.999584","MEAN_MOTION":15.27549973,"ECCENTRICITY":0.00010562,"INCLINATION":43.0014,"RA_OF_ASC_NODE":236.5508,"ARG_OF_PERICENTER":303.7669,"MEAN_ANOMALY":32.8883,"EPHEMERIS_TYPE":0,"CLASSIFICATION_TYPE":"U","NORAD_CAT_ID":67408,"ELEMENT_SET_NO":999,"REV_AT_EPOCH":584,"BSTAR":0.0026600564,"MEAN_MOTION_DOT":0.00073602,"MEAN_MOTION_DDOT":0},{"OBJECT_NAME":"CZ-4B DEB","OBJECT_ID":"2010-051E","EPOCH":"2026-03-08T22:01:50.125728","MEAN_MOTION":15.23766972,"ECCENTRICITY":0.00561086,"INCLINATION":97.769,"RA_OF_ASC_NODE":240.5013,"ARG_OF_PERICENTER":301.1291,"MEAN_ANOMALY":58.4449,"EPHEMERIS_TYPE":0,"CLASSIFICATION_TYPE":"U","NORAD_CAT_ID":38184,"ELEMENT_SET_NO":999,"REV_AT_EPOCH":82066,"BSTAR":0.0024566319,"MEAN_MOTION_DOT":0.00062123,"MEAN_MOTION_DDOT":0}]
